#cP2018  7  3  0  0  0.00000000     192 ORBIT IGS14 HLM  IGS
## 2008 172800.00000000   900.00000000 58302 0.0000000000000
+   31   G01G02G03G05G06G07G08G09G10G11G12G13G14G15G16G17G18
+        G19G20G21G22G23G24G25G26G27G28G29G30G31G32  0  0  0
+          0  0  0  0  0  0  0  0  0  0  0  0  0  0  0  0  0
+          0  0  0  0  0  0  0  0  0  0  0  0  0  0  0  0  0
+          0  0  0  0  0  0  0  0  0  0  0  0  0  0  0  0  0
++         4  4  3  4  4  3  3  4  3  5  3  4  4  4  3  3  4
++         3  3  4  4  4  4  3  3  4  3  3  4  3  4  0  0  0
++         0  0  0  0  0  0  0  0  0  0  0  0  0  0  0  0  0
++         0  0  0  0  0  0  0  0  0  0  0  0  0  0  0  0  0
++         0  0  0  0  0  0  0  0  0  0  0  0  0  0  0  0  0
%c G  cc GPS ccc cccc cccc cccc cccc ccccc ccccc ccccc ccccc
%c cc cc ccc ccc cccc cccc cccc cccc ccccc ccccc ccccc ccccc
%f  1.2500000  1.025000000  0.00000000000  0.000000000000000
%f  0.0000000  0.000000000  0.00000000000  0.000000000000000
%i    0    0    0    0      0      0      0      0         0
%i    0    0    0    0      0      0      0      0         0
/* ULTRA ORBIT COMBINATION 20083_00 (58303.000) FROM:       
/* cou emu esu gfu siu usu whu                              
/* REFERENCED TO emu CLOCK AND TO WEIGHTED MEAN POLE:       
/* PCV:IGS14_2006 OL/AL:FES2004  NONE     Y  ORB:CMB CLK:CMB
*  2018  7  4 12  0  0.00000000
PG01  -1866.823867 -15066.837824 -21927.646943    -62.422112 16  7  8 143  P   P
PG02 -18892.375071  15330.397466  10927.845947     67.445700 11  5 14 210  P   P
PG03 -10403.044305 -21253.368344 -12151.266562    100.143940  7  9 12 218  P   P
PG05  -9220.729665  12430.295211  21473.431774     -5.119849 11 11  7 228  P   P
PG06 -25743.252529   5820.399864  -3070.896698    390.391951 10 15 12 237  P   P
PG07 -18061.986616  -8061.919258  18165.356682    164.596491 13  9 12 233  P   P
PG08   5227.659971 -25948.282957   -512.510795   -107.004615  9  7 13 316  P   P
PG09  -9722.480411 -16613.631503  18266.203047    514.204386 11 12 12 243  P   P
PG10  21818.373788   7597.286212 -13201.459384    188.868586  6 10 14 222  P   P
PG11   1303.257857 -20017.085820 -18046.258176   -731.495840 21 11 20 255  P   P
PG12   5484.799911  20912.038169 -15744.033185    323.217967  8 11 11 259  P   P
PG13 -12594.835372  22519.278460   6185.994412    -92.825277 12 10 13 242  P   P
PG14  16202.111183 -11522.720939 -17220.301788    -97.563689 11 15 13 240  P   P
PG15  -1397.113796  26162.308664  -3032.512725   -351.430360 13  7 13 238  P   P
PG16  10534.693333 -10068.024538  22041.491188     19.071387  9  9  7 234  P   P
PG17 -15168.602847   1311.852135 -21359.717193    -81.735284  9 10  6 269  P   P
PG18   7533.897796 -17214.437353 -19169.243791     29.498199 16  9 11 291  P   P
PG19 -16482.254286  10443.351198 -18393.804172   -423.212275    14 11 243  P   P
PG20  22759.409933  13257.080730  -3890.202225    511.778560 11 11 13 252  P   P
PG21  20648.610012   5287.303441  16628.509331   -372.373222 11 13 15 235  P   P
PG22  -3098.371076 -19564.685316 -17461.691915   -446.903683 14  9 10 242  P   P
PG23  -2570.178326 -24197.827775  10413.660915   -214.985749 12  9 14 202  P   P
PG24  -1977.188661  16659.676840 -20649.503693    -52.121985 15  6  7 338  P   P
PG25  17325.405975  19929.736547  -4026.305396   -610.879615 12 10 14 160  P   P
PG26  18080.282723  -2207.943510  19365.864185    -94.742010 10 11 11 252  P   P
PG27  12091.064737 -20884.834737  10708.370307    362.881650 12 13 14 250  P   P
PG28 -20650.946361 -12076.743659 -10862.696582    728.693396 11 12 11 234  P   P
PG29   6674.323004  18739.475199  17577.758820    420.953895 11  8  8 246  P   P
PG30 -24477.148962  -1575.138492  10415.856024     54.755632 12 12 15 218  P   P
PG31  25987.784397  -6428.293537  -1008.208541    110.104504  9  7 15 240  P   P
PG32  15723.023138  -1577.746098 -21294.569186   -482.033302 11 14  8 242  P   P
*  2018  7  4 12 15  0.00000000
PG01    467.998311 -15807.130825 -21445.989489    -62.425436 16  7 10 150  P   P
PG02 -19954.256773  15484.851101   8375.011388     67.435989 10  6 14 208  P   P
PG03  -9131.543767 -20407.907049 -14410.455862    100.149611  7  9 12 218  P   P
PG05 -11132.018091  10847.037655  21444.941959     -5.119346 11 11  7 231  P   P
PG06 -25328.509644   5445.352155  -5885.967207    390.388799 11 15 12 238  P   P
PG07 -16092.911184  -8811.648820  19587.950475    164.590815 14  8 11 231  P   P
PG08   5448.717935 -25804.853646   2366.605001   -107.005902 10  6 13 316  P   P
PG09  -9202.196727 -18554.263180  16592.470860    514.204003 11 11 12 243  P   P
PG10  22727.076709   8649.863803 -10828.438721    188.868684  5  9 14 222  P   P
PG11   2826.950077 -21158.471111 -16465.200108   -731.494502 21  9 21 257  P   P
PG12   4082.599366  19675.549784 -17654.355109    323.215705  7 11 11 260  P   P
PG13 -12538.889834  21618.796533   8879.743560    -92.824915 12 10 13 244  P   P
PG14  15788.915972  -9435.297505 -18791.905297    -97.563781 10 15 12 239  P   P
PG15  -1790.248567  26287.784132   -230.008471   -351.429705 13  7 13 239  P   P
PG16  12314.106919  -8253.498233  21910.192474     19.070126  9  9  7 236  P   P
PG17 -14591.001011  -1169.249251 -21769.948588    -81.731871  9 10  5 269  P   P
PG18   9478.790830 -17816.522451 -17643.005260     29.502313 16 10 12 290  P   P
PG19 -15959.759558   8384.435056 -19859.224776   -423.209494  2 14 11 241  P   P
PG20  22794.281128  13690.144562  -1124.384184    511.779199 12 11 13 252  P   P
PG21  18975.776628   6134.475018  18329.292579   -372.368367 11 13 14 236  P   P
PG22  -1294.244678 -18410.674349 -18865.759157   -446.914694 14 10  9 243  P   P
PG23  -2093.462527 -25150.696757   7838.818312   -214.985244 12  9 15 203  P   P
PG24  -4157.701450  17390.284858 -19669.225824    -52.122433 15  8  9 339  P   P
PG25  16752.267950  19682.976107  -6806.244902   -610.884865 12 10 14 167  P   P
PG26  19632.938522   -739.801890  17924.359601    -94.730983 10 11 12 252  P   P
PG27  12022.578954 -19490.342429  13143.925893    362.879856 12 14 14 249  P   P
PG28 -21335.255907 -13047.461467  -8246.440573    728.696052 11 13 11 235  P   P
PG29   6078.006436  20549.723592  15671.310541    420.947764 12  7  8 247  P   P
PG30 -23273.372068  -2176.219750  12783.475830     54.751425 13 12 14 218  P   P
PG31  25787.182681  -6140.158094  -3826.501456    110.102127 10  7 15 240  P   P
PG32  15306.646639    854.982480 -21643.611233   -482.026611 11 15  6 242  P   P
*  2018  7  4 12 30  0.00000000
PG01   2693.070833 -16645.413503 -20598.870599    -62.428763 16  8 11 156  P   P
PG02 -20744.767901  15562.345756   5678.891182     67.426279  9  6 15 207  P   P
PG03  -7626.306085 -19482.652695 -16422.740994    100.155282  7  9 11 217  P   P
PG05 -13098.485695   9376.835750  21044.321451     -5.118848 12 11  9 235  P   P
PG06 -24645.280405   4927.808848  -8599.811736    390.385641 12 14 12 238  P   P
PG07 -14033.120656  -9716.921651  20683.828400    164.585141 14  6 10 228  P   P
PG08   5637.745516 -25350.646187   5204.620942   -107.007183 10  6 13 317  P   P
PG09  -8805.780639 -20314.471680  14632.477760    514.203619 11 11 13 243  P   P
PG10  23468.481667   9483.152667  -8270.284503    188.868784  4  9 15 221  P   P
PG11   4170.710415 -22230.675017 -14613.158434   -731.493170 21    21 258  P   P
PG12   2463.357651  18390.375189 -19267.220863    323.213441  5 11 10 261  P   P
PG13 -12457.326845  20428.170088  11420.005144    -92.824551 12 11 13 246  P   P
PG14  15449.317802  -7171.487137 -20030.301892    -97.563875 10 16 11 238  P   P
PG15  -2162.730099  26112.737575   2576.529016   -351.429048 13  8 13 240  P   P
PG16  14161.794691  -6568.934777  21397.348269     19.068864  9 10  7 238  P   P
PG17 -14144.832488  -3701.771591 -21791.470885    -81.728457 10 10  4 269  P   P
PG18  11225.050571 -18439.225913 -15821.425815     29.506419 16 11 12 289  P   P
PG19 -15520.550795   6158.100841 -20992.788937   -423.206714  4 14 10 240  P   P
PG20  22582.892946  13959.184694   1660.661865    511.779837 12 11 13 253  P   P
PG21  17197.710888   7135.212644  19732.665069   -372.363514 11 13 14 237  P   P
PG22    678.442574 -17260.821311 -19938.961114   -446.925705 15 10  8 244  P   P
PG23  -1696.381285 -25829.210356   5127.050392   -214.984742 12  8 15 205  P   P
PG24  -6185.131524  18173.380587 -18351.316218    -52.122909 15  9 10 339  P   P
PG25  15925.202375  19280.073572  -9471.236497   -610.890115 12 10 14 174  P   P
PG26  21113.621182    538.500960  16175.601969    -94.719956  9 11 12 251  P   P
PG27  11995.638877 -17831.610783  15349.255587    362.878067 12 14 14 248  P   P
PG28 -21845.090911 -13765.184742  -5484.505701    728.698712 11 13 12 235  P   P
PG29   5627.955503  22162.612315  13494.817447    420.941628 12  6  8 248  P   P
PG30 -21860.861886  -2921.456726  14933.103534     54.747220 13 11 14 219  P   P
PG31  25309.953568  -5730.693886  -6580.549820    110.099752 10  8 15 239  P   P
PG32  15013.424828   3323.242831 -21618.677031   -482.019920 11 15  4 243  P   P
EOF
